{
  "type": "FeatureCollection",
  "features": [
    {
      "type": "Feature",
      "properties": {
        "norad_id": 67040,
        "name": "STARLINK-35786",
        "group": "last-30-days",
        "lat": -29.6290441543647,
        "lon": -51.53442814578987,
        "alt_km": 388.1783245399092,
        "timestamp": "2025-12-27T17:24:56.108650+00:00",
        "meta_object_name": "STARLINK-35786",
        "meta_object_id": "2025-294L",
        "meta_epoch": "2025-12-27T12:00:02.000160",
        "meta_mean_motion": 15.61502053,
        "meta_eccentricity": 0.0001629,
        "meta_inclination": 42.9991,
        "meta_ra_of_asc_node": 92.1903,
        "meta_arg_of_pericenter": 283.9757,
        "meta_mean_anomaly": 112.9808,
        "meta_ephemeris_type": 0,
        "meta_classification_type": "U",
        "meta_norad_cat_id": 67040,
        "meta_element_set_no": 999,
        "meta_rev_at_epoch": 248,
        "meta_bstar": -0.024525,
        "meta_mean_motion_dot": -0.01908428,
        "meta_mean_motion_ddot": 0,
        "tle_line1": "1 67040U 25294L   25361.50002315 -.01908428  00000+0 -24525-1 0  9994",
        "tle_line2": "2 67040  42.9991  92.1903 0001629 283.9757 112.9808 15.61502053  2487"
      },
      "geometry": {
        "type": "Point",
        "coordinates": [
          -51.53442814578987,
          -29.6290441543647
        ]
      }
    },
    {
      "type": "Feature",
      "properties": {
        "norad_id": 67041,
        "name": "STARLINK-35765",
        "group": "last-30-days",
        "lat": -31.699387006362674,
        "lon": -47.647908356534444,
        "alt_km": 388.28993348959375,
        "timestamp": "2025-12-27T17:24:56.108662+00:00",
        "meta_object_name": "STARLINK-35765",
        "meta_object_id": "2025-294M",
        "meta_epoch": "2025-12-27T12:00:02.000160",
        "meta_mean_motion": 15.6150132,
        "meta_eccentricity": 0.0001425,
        "meta_inclination": 42.999,
        "meta_ra_of_asc_node": 92.1797,
        "meta_arg_of_pericenter": 280.5071,
        "meta_mean_anomaly": 120.3947,
        "meta_ephemeris_type": 0,
        "meta_classification_type": "U",
        "meta_norad_cat_id": 67041,
        "meta_element_set_no": 999,
        "meta_rev_at_epoch": 248,
        "meta_bstar": -0.024783,
        "meta_mean_motion_dot": -0.01925963,
        "meta_mean_motion_ddot": 0,
        "tle_line1": "1 67041U 25294M   25361.50002315 -.01925963  00000+0 -24783-1 0  9994",
        "tle_line2": "2 67041  42.9990  92.1797 0001425 280.5071 120.3947 15.61501320  2487"
      },
      "geometry": {
        "type": "Point",
        "coordinates": [
          -47.647908356534444,
          -31.699387006362674
        ]
      }
    },
    {
      "type": "Feature",
      "properties": {
        "norad_id": 67042,
        "name": "STARLINK-35773",
        "group": "last-30-days",
        "lat": -32.70860288714553,
        "lon": -45.60059060259538,
        "alt_km": 388.4470609633727,
        "timestamp": "2025-12-27T17:24:56.108672+00:00",
        "meta_object_name": "STARLINK-35773",
        "meta_object_id": "2025-294N",
        "meta_epoch": "2025-12-27T12:00:02.000160",
        "meta_mean_motion": 15.61497513,
        "meta_eccentricity": 0.0001338,
        "meta_inclination": 42.9991,
        "meta_ra_of_asc_node": 92.1739,
        "meta_arg_of_pericenter": 283.9276,
        "meta_mean_anomaly": 118.9918,
        "meta_ephemeris_type": 0,
        "meta_classification_type": "U",
        "meta_norad_cat_id": 67042,
        "meta_element_set_no": 999,
        "meta_rev_at_epoch": 267,
        "meta_bstar": -0.025011,
        "meta_mean_motion_dot": -0.01941268,
        "meta_mean_motion_ddot": 0,
        "tle_line1": "1 67042U 25294N   25361.50002315 -.01941268  00000+0 -25011-1 0  9996",
        "tle_line2": "2 67042  42.9991  92.1739 0001338 283.9276 118.9918 15.61497513  2672"
      },
      "geometry": {
        "type": "Point",
        "coordinates": [
          -45.60059060259538,
          -32.70860288714553
        ]
      }
    },
    {
      "type": "Feature",
      "properties": {
        "norad_id": 67043,
        "name": "STARLINK-35901",
        "group": "last-30-days",
        "lat": -33.67872604988818,
        "lon": -43.51563415349546,
        "alt_km": 388.46533039256155,
        "timestamp": "2025-12-27T17:24:56.108683+00:00",
        "meta_object_name": "STARLINK-35901",
        "meta_object_id": "2025-294P",
        "meta_epoch": "2025-12-27T12:00:02.000160",
        "meta_mean_motion": 15.61482169,
        "meta_eccentricity": 0.0001529,
        "meta_inclination": 42.9989,
        "meta_ra_of_asc_node": 92.1698,
        "meta_arg_of_pericenter": 286.6222,
        "meta_mean_anomaly": 118.311,
        "meta_ephemeris_type": 0,
        "meta_classification_type": "U",
        "meta_norad_cat_id": 67043,
        "meta_element_set_no": 999,
        "meta_rev_at_epoch": 267,
        "meta_bstar": -0.024877,
        "meta_mean_motion_dot": -0.01931181,
        "meta_mean_motion_ddot": 0,
        "tle_line1": "1 67043U 25294P   25361.50002315 -.01931181  00000+0 -24877-1 0  9999",
        "tle_line2": "2 67043  42.9989  92.1698 0001529 286.6222 118.3110 15.61482169  2676"
      },
      "geometry": {
        "type": "Point",
        "coordinates": [
          -43.51563415349546,
          -33.67872604988818
        ]
      }
    },
    {
      "type": "Feature",
      "properties": {
        "norad_id": 67044,
        "name": "STARLINK-35884",
        "group": "last-30-days",
        "lat": -34.605256044658134,
        "lon": -41.40362016530476,
        "alt_km": 388.4753500595625,
        "timestamp": "2025-12-27T17:24:56.108696+00:00",
        "meta_object_name": "STARLINK-35884",
        "meta_object_id": "2025-294Q",
        "meta_epoch": "2025-12-27T12:00:02.000160",
        "meta_mean_motion": 15.6146907,
        "meta_eccentricity": 0.0001527,
        "meta_inclination": 42.9992,
        "meta_ra_of_asc_node": 92.1651,
        "meta_arg_of_pericenter": 284.7369,
        "meta_mean_anomaly": 122.1883,
        "meta_ephemeris_type": 0,
        "meta_classification_type": "U",
        "meta_norad_cat_id": 67044,
        "meta_element_set_no": 999,
        "meta_rev_at_epoch": 267,
        "meta_bstar": -0.024753,
        "meta_mean_motion_dot": -0.01921812,
        "meta_mean_motion_ddot": 0,
        "tle_line1": "1 67044U 25294Q   25361.50002315 -.01921812  00000+0 -24753-1 0  9993",
        "tle_line2": "2 67044  42.9992  92.1651 0001527 284.7369 122.1883 15.61469070  2675"
      },
      "geometry": {
        "type": "Point",
        "coordinates": [
          -41.40362016530476,
          -34.605256044658134
        ]
      }
    },
    {
      "type": "Feature",
      "properties": {
        "norad_id": 67045,
        "name": "STARLINK-35891",
        "group": "last-30-days",
        "lat": -35.544134844319544,
        "lon": -39.119221678023116,
        "alt_km": 388.53780551773525,
        "timestamp": "2025-12-27T17:24:56.108708+00:00",
        "meta_object_name": "STARLINK-35891",
        "meta_object_id": "2025-294R",
        "meta_epoch": "2025-12-27T12:00:02.000160",
        "meta_mean_motion": 15.61446371,
        "meta_eccentricity": 0.000156,
        "meta_inclination": 42.9989,
        "meta_ra_of_asc_node": 92.1593,
        "meta_arg_of_pericenter": 284.7532,
        "meta_mean_anomaly": 124.2885,
        "meta_ephemeris_type": 0,
        "meta_classification_type": "U",
        "meta_norad_cat_id": 67045,
        "meta_element_set_no": 999,
        "meta_rev_at_epoch": 259,
        "meta_bstar": -0.024726,
        "meta_mean_motion_dot": -0.01918529,
        "meta_mean_motion_ddot": 0,
        "tle_line1": "1 67045U 25294R   25361.50002315 -.01918529  00000+0 -24726-1 0  9995",
        "tle_line2": "2 67045  42.9989  92.1593 0001560 284.7532 124.2885 15.61446371  2591"
      },
      "geometry": {
        "type": "Point",
        "coordinates": [
          -39.119221678023116,
          -35.544134844319544
        ]
      }
    },
    {
      "type": "Feature",
      "properties": {
        "norad_id": 67046,
        "name": "STARLINK-35721",
        "group": "last-30-days",
        "lat": -36.41201527838224,
        "lon": -36.85475865869621,
        "alt_km": 388.5644617148446,
        "timestamp": "2025-12-27T17:24:56.108718+00:00",
        "meta_object_name": "STARLINK-35721",
        "meta_object_id": "2025-294S",
        "meta_epoch": "2025-12-27T12:00:02.000160",
        "meta_mean_motion": 15.61430865,
        "meta_eccentricity": 0.0001612,
        "meta_inclination": 42.9992,
        "meta_ra_of_asc_node": 92.1546,
        "meta_arg_of_pericenter": 284.662,
        "meta_mean_anomaly": 126.4253,
        "meta_ephemeris_type": 0,
        "meta_classification_type": "U",
        "meta_norad_cat_id": 67046,
        "meta_element_set_no": 999,
        "meta_rev_at_epoch": 267,
        "meta_bstar": -0.024696,
        "meta_mean_motion_dot": -0.01915498,
        "meta_mean_motion_ddot": 0,
        "tle_line1": "1 67046U 25294S   25361.50002315 -.01915498  00000+0 -24696-1 0  9994",
        "tle_line2": "2 67046  42.9992  92.1546 0001612 284.6620 126.4253 15.61430865  2672"
      },
      "geometry": {
        "type": "Point",
        "coordinates": [
          -36.85475865869621,
          -36.41201527838224
        ]
      }
    }
  ]
}